[{"OBJECT_NAME":"STARLINK-36335","OBJECT_ID":"2026-040A","EPOCH":"2026-03-11T18:00:01.999296","MEAN_MOTION":16.0083844,"ECCENTRICITY":0.0001256,"INCLINATION":97.2753,"RA_OF_ASC_NODE":19.1119,"ARG_OF_PERICENTER":75.8435,"MEAN_ANOMALY":44.6938,"EPHEMERIS_TYPE":0,"CLASSIFICATION_TYPE":"U","NORAD_CAT_ID":68015,"ELEMENT_SET_NO":999,"REV_AT_EPOCH":270,"BSTAR":-0.0020145,"MEAN_MOTION_DOT":-0.0106668,"MEAN_MOTION_DDOT":0.00037291},{"OBJECT_NAME":"STARLINK-36923","OBJECT_ID":"2026-040B","EPOCH":"2026-03-11T10:00:01.999584","MEAN_MOTION":16.01840091,"ECCENTRICITY":9.03e-5,"INCLINATION":97.2764,"RA_OF_ASC_NODE":18.7509,"ARG_OF_PERICENTER":98.1678,"MEAN_ANOMALY":268.5876,"EPHEMERIS_TYPE":0,"CLASSIFICATION_TYPE":"U","NORAD_CAT_ID":68016,"ELEMENT_SET_NO":999,"REV_AT_EPOCH":270,"BSTAR":-0.0021199,"MEAN_MOTION_DOT":-0.01187768,"MEAN_MOTION_DDOT":0.0004602},{"OBJECT_NAME":"STARLINK-36568","OBJECT_ID":"2026-040C","EPOCH":"2026-03-11T18:00:01.999296","MEAN_MOTION":16.01130409,"ECCENTRICITY":0.0001155,"INCLINATION":97.2753,"RA_OF_ASC_NODE":19.1163,"ARG_OF_PERICENTER":84.872,"MEAN_ANOMALY":45.36,"EPHEMERIS_TYPE":0,"CLASSIFICATION_TYPE":"U","NORAD_CAT_ID":68017,"ELEMENT_SET_NO":999,"REV_AT_EPOCH":275,"BSTAR":-0.0019352,"MEAN_MOTION_DOT":-0.01042137,"MEAN_MOTION_DDOT":0.00035837},{"OBJECT_NAME":"STARLINK-36930","OBJECT_ID":"2026-040D","EPOCH":"2026-03-11T18:00:01.999296","MEAN_MOTION":16.00922222,"ECCENTRICITY":0.0001119,"INCLINATION":97.2752,"RA_OF_ASC_NODE":19.1137,"ARG_OF_PERICENTER":73.1712,"MEAN_ANOMALY":50.6685,"EPHEMERIS_TYPE":0,"CLASSIFICATION_TYPE":"U","NORAD_CAT_ID":68018,"ELEMENT_SET_NO":999,"REV_AT_EPOCH":275,"BSTAR":-0.0019369,"MEAN_MOTION_DOT":-0.01030809,"MEAN_MOTION_DDOT":0.00035036},{"OBJECT_NAME":"STARLINK-36921","OBJECT_ID":"2026-040E","EPOCH":"2026-03-11T06:00:02.000160","MEAN_MOTION":16.02423775,"ECCENTRICITY":0.00011063,"INCLINATION":97.2764,"RA_OF_ASC_NODE":18.5726,"ARG_OF_PERICENTER":121.0334,"MEAN_ANOMALY":13.3751,"EPHEMERIS_TYPE":0,"CLASSIFICATION_TYPE":"U","NORAD_CAT_ID":68019,"ELEMENT_SET_NO":999,"REV_AT_EPOCH":267,"BSTAR":-0.0018133903,"MEAN_MOTION_DOT":-0.01052306,"MEAN_MOTION_DDOT":0.00037033585},{"OBJECT_NAME":"STARLINK-36928","OBJECT_ID":"2026-040F","EPOCH":"2026-03-11T18:00:01.999296","MEAN_MOTION":16.01223006,"ECCENTRICITY":0.000121,"INCLINATION":97.2752,"RA_OF_ASC_NODE":19.1168,"ARG_OF_PERICENTER":88.5515,"MEAN_ANOMALY":44.1207,"EPHEMERIS_TYPE":0,"CLASSIFICATION_TYPE":"U","NORAD_CAT_ID":68020,"ELEMENT_SET_NO":999,"REV_AT_EPOCH":275,"BSTAR":-0.0019366,"MEAN_MOTION_DOT":-0.01048451,"MEAN_MOTION_DDOT":0.00036279},{"OBJECT_NAME":"STARLINK-36858","OBJECT_ID":"2026-040G","EPOCH":"2026-03-11T20:21:04.253760","MEAN_MOTION":16.07610848,"ECCENTRICITY":0.0001743,"INCLINATION":97.2746,"RA_OF_ASC_NODE":19.2325,"ARG_OF_PERICENTER":168.4727,"MEAN_ANOMALY":191.6596,"EPHEMERIS_TYPE":0,"CLASSIFICATION_TYPE":"U","NORAD_CAT_ID":68021,"ELEMENT_SET_NO":999,"REV_AT_EPOCH":168,"BSTAR":0.0016514,"MEAN_MOTION_DOT":0.01293419,"MEAN_MOTION_DDOT":0.0010411},{"OBJECT_NAME":"STARLINK-36916","OBJECT_ID":"2026-040H","EPOCH":"2026-03-11T10:00:01.999584","MEAN_MOTION":16.02328708,"ECCENTRICITY":9.35e-5,"INCLINATION":97.2761,"RA_OF_ASC_NODE":18.757,"ARG_OF_PERICENTER":93.1787,"MEAN_ANOMALY":287.9719,"EPHEMERIS_TYPE":0,"CLASSIFICATION_TYPE":"U","NORAD_CAT_ID":68022,"ELEMENT_SET_NO":999,"REV_AT_EPOCH":270,"BSTAR":-0.0020475,"MEAN_MOTION_DOT":-0.01180295,"MEAN_MOTION_DDOT":0.00045743},{"OBJECT_NAME":"STARLINK-36871","OBJECT_ID":"2026-040J","EPOCH":"2026-03-11T18:00:01.999296","MEAN_MOTION":16.0163646,"ECCENTRICITY":0.000118,"INCLINATION":97.275,"RA_OF_ASC_NODE":19.1221,"ARG_OF_PERICENTER":78.6663,"MEAN_ANOMALY":66.6643,"EPHEMERIS_TYPE":0,"CLASSIFICATION_TYPE":"U","NORAD_CAT_ID":68023,"ELEMENT_SET_NO":999,"REV_AT_EPOCH":275,"BSTAR":-0.0018839,"MEAN_MOTION_DOT":-0.01044478,"MEAN_MOTION_DDOT":0.00036196},{"OBJECT_NAME":"STARLINK-36891","OBJECT_ID":"2026-040K","EPOCH":"2026-03-11T18:00:01.999296","MEAN_MOTION":16.01754801,"ECCENTRICITY":0.0001119,"INCLINATION":97.2749,"RA_OF_ASC_NODE":19.124,"ARG_OF_PERICENTER":82.6234,"MEAN_ANOMALY":66.6323,"EPHEMERIS_TYPE":0,"CLASSIFICATION_TYPE":"U","NORAD_CAT_ID":68024,"ELEMENT_SET_NO":999,"REV_AT_EPOCH":275,"BSTAR":-0.0018621,"MEAN_MOTION_DOT":-0.01039542,"MEAN_MOTION_DDOT":0.00035928},{"OBJECT_NAME":"STARLINK-36378","OBJECT_ID":"2026-040L","EPOCH":"2026-03-11T18:00:01.999296","MEAN_MOTION":16.02003198,"ECCENTRICITY":0.0001069,"INCLINATION":97.2762,"RA_OF_ASC_NODE":19.1273,"ARG_OF_PERICENTER":82.1628,"MEAN_ANOMALY":74.0119,"EPHEMERIS_TYPE":0,"CLASSIFICATION_TYPE":"U","NORAD_CAT_ID":68025,"ELEMENT_SET_NO":999,"REV_AT_EPOCH":270,"BSTAR":-0.0019704,"MEAN_MOTION_DOT":-0.01115186,"MEAN_MOTION_DDOT":0.00041032},{"OBJECT_NAME":"STARLINK-36884","OBJECT_ID":"2026-040M","EPOCH":"2026-03-11T18:00:01.999296","MEAN_MOTION":16.01880636,"ECCENTRICITY":0.0001088,"INCLINATION":97.2756,"RA_OF_ASC_NODE":19.1252,"ARG_OF_PERICENTER":82.4208,"MEAN_ANOMALY":70.3983,"EPHEMERIS_TYPE":0,"CLASSIFICATION_TYPE":"U","NORAD_CAT_ID":68026,"ELEMENT_SET_NO":999,"REV_AT_EPOCH":275,"BSTAR":-0.0019161,"MEAN_MOTION_DOT":-0.0107714,"MEAN_MOTION_DDOT":0.00038426},{"OBJECT_NAME":"STARLINK-36940","OBJECT_ID":"2026-040N","EPOCH":"2026-03-11T18:00:01.999296","MEAN_MOTION":16.03322576,"ECCENTRICITY":0.0001191,"INCLINATION":97.2778,"RA_OF_ASC_NODE":19.1535,"ARG_OF_PERICENTER":77.9679,"MEAN_ANOMALY":140.5274,"EPHEMERIS_TYPE":0,"CLASSIFICATION_TYPE":"U","NORAD_CAT_ID":68027,"ELEMENT_SET_NO":999,"REV_AT_EPOCH":285,"BSTAR":-0.0021727,"MEAN_MOTION_DOT":-0.01326001,"MEAN_MOTION_DDOT":0.00057396},{"OBJECT_NAME":"STARLINK-36253","OBJECT_ID":"2026-040P","EPOCH":"2026-03-11T18:00:01.999296","MEAN_MOTION":15.84808689,"ECCENTRICITY":0.000155,"INCLINATION":97.2775,"RA_OF_ASC_NODE":19.0266,"ARG_OF_PERICENTER":103.8018,"MEAN_ANOMALY":188.0711,"EPHEMERIS_TYPE":0,"CLASSIFICATION_TYPE":"U","NORAD_CAT_ID":68028,"ELEMENT_SET_NO":999,"REV_AT_EPOCH":285,"BSTAR":-0.010676,"MEAN_MOTION_DOT":-0.02121543,"MEAN_MOTION_DDOT":0},{"OBJECT_NAME":"STARLINK-36944","OBJECT_ID":"2026-040Q","EPOCH":"2026-03-11T18:00:01.999296","MEAN_MOTION":16.02128393,"ECCENTRICITY":0.0001167,"INCLINATION":97.275,"RA_OF_ASC_NODE":19.1275,"ARG_OF_PERICENTER":75.3611,"MEAN_ANOMALY":83.8462,"EPHEMERIS_TYPE":0,"CLASSIFICATION_TYPE":"U","NORAD_CAT_ID":68029,"ELEMENT_SET_NO":999,"REV_AT_EPOCH":275,"BSTAR":-0.0020521,"MEAN_MOTION_DOT":-0.01169359,"MEAN_MOTION_DDOT":0.00044859},{"OBJECT_NAME":"STARLINK-36942","OBJECT_ID":"2026-040R","EPOCH":"2026-03-11T18:00:01.999296","MEAN_MOTION":16.02245098,"ECCENTRICITY":0.0001155,"INCLINATION":97.2761,"RA_OF_ASC_NODE":19.1296,"ARG_OF_PERICENTER":79.5865,"MEAN_ANOMALY":83.0725,"EPHEMERIS_TYPE":0,"CLASSIFICATION_TYPE":"U","NORAD_CAT_ID":68030,"ELEMENT_SET_NO":999,"REV_AT_EPOCH":275,"BSTAR":-0.002113,"MEAN_MOTION_DOT":-0.01211866,"MEAN_MOTION_DDOT":0.00047985}]
